{"epoch":1784799577,"count":18318,"objects":[{"id":"60561","name":"FLOCK 4BE 3","type":"PAYLOAD","l1":"1 60561U 24149CX  26203.70592770  .00019455  00000-0  44888-3 0  9997","l2":"2 60561  97.3684 287.9824 0005478 147.7196 212.4388 15.42582679107810"},{"id":"60563","name":"FLOCK 4BE 19","type":"PAYLOAD","l1":"1 60563U 24149CZ  26203.54995172  .00026606  00000-0  54728-3 0  9994","l2":"2 60563  97.3733 289.5497 0006198 154.0800 206.0761 15.45921770107887"},{"id":"62613","name":"FLOCK 4G 8","type":"PAYLOAD","l1":"1 62613U 25009E   26203.20447195  .00010565  00000-0  36242-3 0  9996","l2":"2 62613  97.3993 285.0748 0004783 169.2911 190.8432 15.30337196 84271"},{"id":"62621","name":"FLOCK 4G 13","type":"PAYLOAD","l1":"1 62621U 25009N   26203.20293051  .00099335  00000-0  17668-2 0  9997","l2":"2 62621  97.3933 287.2285 0006697 180.8063 179.3178 15.49782255 84412"},{"id":"62622","name":"FLOCK 4G 9","type":"PAYLOAD","l1":"1 62622U 25009P   26203.69339270  .00009338  00000-0  33814-3 0  9991","l2":"2 62622  97.3947 284.3924 0004840 178.3158 181.8099 15.28600310 84284"},{"id":"62624","name":"FLOCK 4G 7","type":"PAYLOAD","l1":"1 62624U 25009R   26203.19026314  .00009847  00000-0  34190-3 0  9993","l2":"2 62624  97.3931 284.3218 0003383 162.6231 197.5126 15.29966329 84252"},{"id":"62625","name":"FLOCK 4G 12","type":"PAYLOAD","l1":"1 62625U 25009S   26203.18597567  .00011672  00000-0  40580-3 0  9995","l2":"2 62625  97.4009 284.8740 0004873 166.3362 193.8011 15.29872692 84257"},{"id":"62629","name":"FLOCK 4G 11","type":"PAYLOAD","l1":"1 62629U 25009W   26203.49734803  .00012529  00000-0  43381-3 0  9993","l2":"2 62629  97.3911 284.7339 0003372 163.4301 196.7050 15.29993001 84319"},{"id":"62633","name":"FLOCK 4G 26","type":"PAYLOAD","l1":"1 62633U 25009AA  26203.50999767  .00013183  00000-0  45347-3 0  9993","l2":"2 62633  97.4008 285.3604 0004309 156.2708 203.8732 15.30191079 84310"},{"id":"62634","name":"FLOCK 4G 28","type":"PAYLOAD","l1":"1 62634U 25009AB  26203.19025390  .00009109  00000-0  26749-3 0  9999","l2":"2 62634  97.4016 287.8829 0002678 147.4201 212.7208 15.35363809 84452"},{"id":"62637","name":"FLOCK 4G 24","type":"PAYLOAD","l1":"1 62637U 25009AE  26203.19297861  .00010860  00000-0  37104-3 0  9999","l2":"2 62637  97.4013 285.3533 0004206 147.0674 213.0829 15.30462306 84287"},{"id":"62639","name":"FLOCK 4G 3","type":"PAYLOAD","l1":"1 62639U 25009AG  26203.18842041  .00010446  00000-0  36250-3 0  9997","l2":"2 62639  97.4014 285.0516 0003841 151.6106 208.5344 15.29965570 84250"},{"id":"62641","name":"FLOCK 4G 27","type":"PAYLOAD","l1":"1 62641U 25009AJ  26203.66614803  .00009730  00000-0  33852-3 0  9995","l2":"2 62641  97.3924 284.8657 0003202 151.4990 208.6426 15.29904486 84324"},{"id":"62642","name":"FLOCK 4G 29","type":"PAYLOAD","l1":"1 62642U 25009AK  26203.19343826  .00006872  00000-0  23972-3 0  9994","l2":"2 62642  97.4010 285.0161 0003972 148.1228 212.0254 15.29932158 84253"},{"id":"62645","name":"FLOCK 4G 22","type":"PAYLOAD","l1":"1 62645U 25009AN  26203.47389520  .00011886  00000-0  41320-3 0  9997","l2":"2 62645  97.3997 285.3272 0003533 145.2233 214.9239 15.29874923 84318"},{"id":"62646","name":"FLOCK 4G 25","type":"PAYLOAD","l1":"1 62646U 25009AP  26203.18492449  .00011594  00000-0  40035-3 0  9999","l2":"2 62646  97.4001 285.1215 0002990 146.9413 213.2015 15.30104328 84271"}]}