{"fetched_at":"2026-07-23T07:05:20.500Z","source":"https://celestrak.org/NORAD/elements/gp.php?GROUP=planet&FORMAT=JSON","constellation":"superdove","records":[{"OBJECT_NAME":"FLOCK 4BE-3","OBJECT_ID":"2024-149CX","EPOCH":"2026-07-22T16:56:32.153280","CLASSIFICATION_TYPE":"U","MEAN_MOTION":15.42582679,"ECCENTRICITY":0.00054784,"INCLINATION":97.3684,"RA_OF_ASC_NODE":287.9824,"ARG_OF_PERICENTER":147.7196,"MEAN_ANOMALY":212.4388,"EPHEMERIS_TYPE":0,"NORAD_CAT_ID":60561,"ELEMENT_SET_NO":999,"REV_AT_EPOCH":10781,"BSTAR":0.00044887736,"MEAN_MOTION_DOT":0.00019455,"MEAN_MOTION_DDOT":0},{"OBJECT_NAME":"FLOCK 4BE-19","OBJECT_ID":"2024-149CZ","EPOCH":"2026-07-22T13:11:55.828608","CLASSIFICATION_TYPE":"U","MEAN_MOTION":15.4592177,"ECCENTRICITY":0.00061979,"INCLINATION":97.3733,"RA_OF_ASC_NODE":289.5497,"ARG_OF_PERICENTER":154.08,"MEAN_ANOMALY":206.0761,"EPHEMERIS_TYPE":0,"NORAD_CAT_ID":60563,"ELEMENT_SET_NO":999,"REV_AT_EPOCH":10788,"BSTAR":0.00054727695,"MEAN_MOTION_DOT":0.00026606,"MEAN_MOTION_DDOT":0},{"OBJECT_NAME":"FLOCK 4G-8","OBJECT_ID":"2025-009E","EPOCH":"2026-07-22T04:54:26.376480","CLASSIFICATION_TYPE":"U","MEAN_MOTION":15.30337196,"ECCENTRICITY":0.00047827,"INCLINATION":97.3993,"RA_OF_ASC_NODE":285.0748,"ARG_OF_PERICENTER":169.2911,"MEAN_ANOMALY":190.8432,"EPHEMERIS_TYPE":0,"NORAD_CAT_ID":62613,"ELEMENT_SET_NO":999,"REV_AT_EPOCH":8427,"BSTAR":0.00036241798,"MEAN_MOTION_DOT":0.00010565,"MEAN_MOTION_DDOT":0},{"OBJECT_NAME":"FLOCK 4G-13","OBJECT_ID":"2025-009N","EPOCH":"2026-07-22T04:52:13.196064","CLASSIFICATION_TYPE":"U","MEAN_MOTION":15.49782255,"ECCENTRICITY":0.00066969,"INCLINATION":97.3933,"RA_OF_ASC_NODE":287.2285,"ARG_OF_PERICENTER":180.8063,"MEAN_ANOMALY":179.3178,"EPHEMERIS_TYPE":0,"NORAD_CAT_ID":62621,"ELEMENT_SET_NO":999,"REV_AT_EPOCH":8441,"BSTAR":0.0017667713,"MEAN_MOTION_DOT":0.00099335,"MEAN_MOTION_DDOT":0},{"OBJECT_NAME":"FLOCK 4G-9","OBJECT_ID":"2025-009P","EPOCH":"2026-07-22T16:38:29.129280","CLASSIFICATION_TYPE":"U","MEAN_MOTION":15.2860031,"ECCENTRICITY":0.00048397,"INCLINATION":97.3947,"RA_OF_ASC_NODE":284.3924,"ARG_OF_PERICENTER":178.3158,"MEAN_ANOMALY":181.8099,"EPHEMERIS_TYPE":0,"NORAD_CAT_ID":62622,"ELEMENT_SET_NO":999,"REV_AT_EPOCH":8428,"BSTAR":0.00033814325,"MEAN_MOTION_DOT":0.00009338,"MEAN_MOTION_DDOT":0},{"OBJECT_NAME":"FLOCK 4G-7","OBJECT_ID":"2025-009R","EPOCH":"2026-07-22T04:33:58.735296","CLASSIFICATION_TYPE":"U","MEAN_MOTION":15.29966329,"ECCENTRICITY":0.00033828,"INCLINATION":97.3931,"RA_OF_ASC_NODE":284.3218,"ARG_OF_PERICENTER":162.6231,"MEAN_ANOMALY":197.5126,"EPHEMERIS_TYPE":0,"NORAD_CAT_ID":62624,"ELEMENT_SET_NO":999,"REV_AT_EPOCH":8425,"BSTAR":0.00034189867,"MEAN_MOTION_DOT":0.00009847,"MEAN_MOTION_DDOT":0},{"OBJECT_NAME":"FLOCK 4G-12","OBJECT_ID":"2025-009S","EPOCH":"2026-07-22T04:27:48.297888","CLASSIFICATION_TYPE":"U","MEAN_MOTION":15.29872692,"ECCENTRICITY":0.00048729,"INCLINATION":97.4009,"RA_OF_ASC_NODE":284.874,"ARG_OF_PERICENTER":166.3362,"MEAN_ANOMALY":193.8011,"EPHEMERIS_TYPE":0,"NORAD_CAT_ID":62625,"ELEMENT_SET_NO":999,"REV_AT_EPOCH":8425,"BSTAR":0.00040579603,"MEAN_MOTION_DOT":0.00011672,"MEAN_MOTION_DDOT":0},{"OBJECT_NAME":"FLOCK 4G-11","OBJECT_ID":"2025-009W","EPOCH":"2026-07-22T11:56:10.869792","CLASSIFICATION_TYPE":"U","MEAN_MOTION":15.29993001,"ECCENTRICITY":0.00033716,"INCLINATION":97.3911,"RA_OF_ASC_NODE":284.7339,"ARG_OF_PERICENTER":163.4301,"MEAN_ANOMALY":196.705,"EPHEMERIS_TYPE":0,"NORAD_CAT_ID":62629,"ELEMENT_SET_NO":999,"REV_AT_EPOCH":8431,"BSTAR":0.00043381104,"MEAN_MOTION_DOT":0.00012529,"MEAN_MOTION_DDOT":0},{"OBJECT_NAME":"FLOCK 4G-26","OBJECT_ID":"2025-009AA","EPOCH":"2026-07-22T12:14:23.798688","CLASSIFICATION_TYPE":"U","MEAN_MOTION":15.30191079,"ECCENTRICITY":0.00043088,"INCLINATION":97.4008,"RA_OF_ASC_NODE":285.3604,"ARG_OF_PERICENTER":156.2708,"MEAN_ANOMALY":203.8732,"EPHEMERIS_TYPE":0,"NORAD_CAT_ID":62633,"ELEMENT_SET_NO":999,"REV_AT_EPOCH":8431,"BSTAR":0.00045347055,"MEAN_MOTION_DOT":0.00013183,"MEAN_MOTION_DDOT":0},{"OBJECT_NAME":"FLOCK 4G-28","OBJECT_ID":"2025-009AB","EPOCH":"2026-07-22T04:33:57.936960","CLASSIFICATION_TYPE":"U","MEAN_MOTION":15.35363809,"ECCENTRICITY":0.0002678,"INCLINATION":97.4016,"RA_OF_ASC_NODE":287.8829,"ARG_OF_PERICENTER":147.4201,"MEAN_ANOMALY":212.7208,"EPHEMERIS_TYPE":0,"NORAD_CAT_ID":62634,"ELEMENT_SET_NO":999,"REV_AT_EPOCH":8445,"BSTAR":0.00026748845,"MEAN_MOTION_DOT":0.00009109,"MEAN_MOTION_DDOT":0},{"OBJECT_NAME":"FLOCK 4G-24","OBJECT_ID":"2025-009AE","EPOCH":"2026-07-22T04:37:53.351904","CLASSIFICATION_TYPE":"U","MEAN_MOTION":15.30462306,"ECCENTRICITY":0.00042063,"INCLINATION":97.4013,"RA_OF_ASC_NODE":285.3533,"ARG_OF_PERICENTER":147.0674,"MEAN_ANOMALY":213.0829,"EPHEMERIS_TYPE":0,"NORAD_CAT_ID":62637,"ELEMENT_SET_NO":999,"REV_AT_EPOCH":8428,"BSTAR":0.00037103635,"MEAN_MOTION_DOT":0.0001086,"MEAN_MOTION_DDOT":0},{"OBJECT_NAME":"FLOCK 4G-3","OBJECT_ID":"2025-009AG","EPOCH":"2026-07-22T04:31:19.523424","CLASSIFICATION_TYPE":"U","MEAN_MOTION":15.2996557,"ECCENTRICITY":0.00038409,"INCLINATION":97.4014,"RA_OF_ASC_NODE":285.0516,"ARG_OF_PERICENTER":151.6106,"MEAN_ANOMALY":208.5344,"EPHEMERIS_TYPE":0,"NORAD_CAT_ID":62639,"ELEMENT_SET_NO":999,"REV_AT_EPOCH":8425,"BSTAR":0.00036249997,"MEAN_MOTION_DOT":0.00010446,"MEAN_MOTION_DDOT":0},{"OBJECT_NAME":"FLOCK 4G-27","OBJECT_ID":"2025-009AJ","EPOCH":"2026-07-22T15:59:15.189792","CLASSIFICATION_TYPE":"U","MEAN_MOTION":15.29904486,"ECCENTRICITY":0.00032018,"INCLINATION":97.3924,"RA_OF_ASC_NODE":284.8657,"ARG_OF_PERICENTER":151.499,"MEAN_ANOMALY":208.6426,"EPHEMERIS_TYPE":0,"NORAD_CAT_ID":62641,"ELEMENT_SET_NO":999,"REV_AT_EPOCH":8432,"BSTAR":0.00033851766,"MEAN_MOTION_DOT":0.0000973,"MEAN_MOTION_DDOT":0},{"OBJECT_NAME":"FLOCK 4G-29","OBJECT_ID":"2025-009AK","EPOCH":"2026-07-22T04:38:33.065664","CLASSIFICATION_TYPE":"U","MEAN_MOTION":15.29932158,"ECCENTRICITY":0.00039723,"INCLINATION":97.401,"RA_OF_ASC_NODE":285.0161,"ARG_OF_PERICENTER":148.1228,"MEAN_ANOMALY":212.0254,"EPHEMERIS_TYPE":0,"NORAD_CAT_ID":62642,"ELEMENT_SET_NO":999,"REV_AT_EPOCH":8425,"BSTAR":0.00023971689,"MEAN_MOTION_DOT":0.00006872,"MEAN_MOTION_DDOT":0},{"OBJECT_NAME":"FLOCK 4G-22","OBJECT_ID":"2025-009AN","EPOCH":"2026-07-22T11:22:24.545280","CLASSIFICATION_TYPE":"U","MEAN_MOTION":15.29874923,"ECCENTRICITY":0.00035326,"INCLINATION":97.3997,"RA_OF_ASC_NODE":285.3272,"ARG_OF_PERICENTER":145.2233,"MEAN_ANOMALY":214.9239,"EPHEMERIS_TYPE":0,"NORAD_CAT_ID":62645,"ELEMENT_SET_NO":999,"REV_AT_EPOCH":8431,"BSTAR":0.00041320092,"MEAN_MOTION_DOT":0.00011886,"MEAN_MOTION_DDOT":0},{"OBJECT_NAME":"FLOCK 4G-25","OBJECT_ID":"2025-009AP","EPOCH":"2026-07-22T04:26:17.475936","CLASSIFICATION_TYPE":"U","MEAN_MOTION":15.30104328,"ECCENTRICITY":0.00029899,"INCLINATION":97.4001,"RA_OF_ASC_NODE":285.1215,"ARG_OF_PERICENTER":146.9413,"MEAN_ANOMALY":213.2015,"EPHEMERIS_TYPE":0,"NORAD_CAT_ID":62646,"ELEMENT_SET_NO":999,"REV_AT_EPOCH":8427,"BSTAR":0.00040034837,"MEAN_MOTION_DOT":0.00011594,"MEAN_MOTION_DDOT":0}]}
